OPS 6582 (TRANSIT 5B-5) 
1 00965U 64083D   22174.54579091  .00000051  00000+0  57925-4 0  9994
2 00965  90.0244 195.4553 0039962 208.6841 265.0670 13.56781463846346
OSCAR 7 (AO-7)          
1 07530U 74089B   22175.19162387 -.00000033  00000+0  79673-4 0  9999
2 07530 101.9040 155.0829 0012524  30.5736 341.0905 12.53655569178555
UOSAT 2 (UO-11)         
1 14781U 84021B   22175.19548961  .00000665  00000+0  86524-4 0  9991
2 14781  97.6172 162.3222 0007071 306.7467  53.3098 14.83688567 62047
NOAA 9                  
1 15427U 84123A   22174.53638060  .00000074  00000+0  60555-4 0  9999
2 15427  99.0452 147.0162 0015386 144.6886 322.9222 14.16204976937473
LUSAT (LO-19)           
1 20442U 90005G   22174.66410738  .00000083  00000+0  47030-4 0  9995
2 20442  98.7939 139.6203 0012296 145.9216 214.2759 14.33065711694056
ITAMSAT (IO-26)         
1 22826U 93061D   22174.48299647  .00000067  00000+0  43561-4 0  9999
2 22826  98.8804 205.5271 0009434  27.5677 332.6004 14.30522502499278
RADIO ROSTO (RS-15)     
1 23439U 94085A   22174.60520045 -.00000039  00000+0  10000-3 0  9991
2 23439  64.8152 135.6640 0168143 271.4772  86.6899 11.27572643132186
JAS-2 (FO-29)           
1 24278U 96046B   22174.34784239  .00000003  00000+0  41681-4 0  9990
2 24278  98.5154 197.2270 0349210 268.0179  88.0943 13.53116274276401
NOAA 15                 
1 25338U 98030A   22175.15514627  .00000151  00000+0  81291-4 0  9990
2 25338  98.6431 204.6031 0009147 279.0355  80.9789 14.26141997254222
TECHSAT 1B (GO-32)      
1 25397U 98043D   22174.47249856  .00000027  00000+0  31469-4 0  9996
2 25397  98.8182 124.9565 0002406  88.9274 271.2179 14.23758483244280
ISS (ZARYA)             
1 25544U 98067A   22175.15779714  .00006249  00000+0  11800-3 0  9991
2 25544  51.6441 302.0616 0003996 295.6403 123.1198 15.49847427346264
ORSTED                  
1 25635U 99008B   22174.63633061  .00000295  00000+0  76991-4 0  9992
2 25635  96.4596  38.1052 0138719 160.9126 199.7345 14.48480141231442
PHASE 3D (AO-40)        
1 26609U 00072B   22173.35476522 -.00000259  00000+0  00000+0 0  9996
2 26609   6.6071 269.2558 7995037  20.0569 358.4321  1.25588910 99210
PCSAT (NO-44)           
1 26931U 01043C   22175.09306838  .00000043  00000+0  48077-4 0  9999
2 26931  67.0521  41.2605 0007525 262.6045  97.4201 14.30710688 82513
SAUDISAT 1C (SO-50)     
1 27607U 02058C   22174.55413183  .00000456  00000+0  83164-4 0  9993
2 27607  64.5552 283.2322 0078760 293.2517  66.0307 14.76140564 49272
CUTE-1 (CO-55)          
1 27844U 03031E   22174.47583004  .00000201  00000+0  10964-3 0  9994
2 27844  98.6777 182.0712 0011164  85.4588 274.7865 14.22457382984764
CUBESAT XI-IV (CO-57)   
1 27848U 03031J   22174.22960217  .00000185  00000+0  10321-3 0  9994
2 27848  98.6823 182.3472 0011014  98.6405 261.6021 14.22013733984503
MOZHAYETS 4 (RS-22)     
1 27939U 03042A   22175.14864003  .00000619  00000+0  11830-3 0  9993
2 27939  98.1928 315.8678 0013020 181.0752 179.0412 14.67367935  2026
INMARSAT 4-F1           
1 28628U 05009A   22174.84806081 -.00000261  00000+0  00000+0 0  9999
2 28628   3.6161  35.1623 0002775  66.7805 258.8276  1.00272299 63085
NOAA 18                 
1 28654U 05018A   22175.14690954  .00000125  00000+0  91603-4 0  9994
2 28654  98.9488 245.5777 0013344 315.6097  44.4004 14.12745348881019
CUBESAT XI-V            
1 28895U 05043F   22174.32691194  .00000820  00000+0  16397-3 0  9993
2 28895  98.1074 305.6147 0017865 121.0788 239.2171 14.64356791888277
METOP-A                 
1 29499U 06044A   22174.57859546  .00000847  00000+0  12101-3 0  9998
2 29499  98.4501 219.3777 0197635 349.2365 155.0235 14.67248040814438
CARTOSAT-2 (IRS-P7)     
1 29710U 07001B   22174.82933650  .00012610  00000+0  31187-3 0  9991
2 29710  97.8668 280.6646 0150899  35.6754 325.4456 15.29619269837219
FALCONSAT-3             
1 30776U 07006E   22174.81449136  .00026837  00000+0  40325-3 0  9990
2 30776  35.4301 218.5889 0002906 166.7205 193.3604 15.53896846850572
CAPE-1                  
1 31130U 07012P   22175.10497680  .00000518  00000+0  11911-3 0  9999
2 31130  98.2698 115.6242 0093719 272.8981  86.1495 14.57128396806057
CARTOSAT-2A             
1 32783U 08021A   22175.11870333  .00000317  00000+0  50357-4 0  9991
2 32783  97.9646 235.2836 0013701 142.7848 217.4327 14.78650392764009
CUTE-1.7+APD II (CO-65) 
1 32785U 08021C   22174.40876410  .00001624  00000+0  17550-3 0  9995
2 32785  97.6572 145.0684 0011709 207.8840 152.1751 14.89612187767377
COMPASS-1               
1 32787U 08021E   22174.53650175  .00002675  00000+0  24412-3 0  9991
2 32787  97.5611 156.3220 0013126 121.3552 238.8956 14.95834119769018
AAUSAT-II               
1 32788U 08021F   22174.51810409  .00003994  00000+0  34651-3 0  9999
2 32788  97.5340 159.6177 0013501  99.9147 260.3600 14.97536170769342
DELFI-C3 (DO-64)        
1 32789U 08021G   22174.29934662  .00011858  00000+0  65670-3 0  9996
2 32789  97.3384 200.3862 0008374 309.2363  50.8125 15.13940628772819
SEEDS II (CO-66)        
1 32791U 08021J   22174.47612587  .00002559  00000+0  25300-3 0  9992
2 32791  97.6109 150.6210 0013156 162.2505 197.9177 14.92697787768178
YUBILEINY (RS-30)       
1 32953U 08025A   22175.05873191  .00000024  00000+0  10000-3 0  9997
2 32953  82.5031 179.8284 0018006 244.4671 115.4549 12.43111217639151
FENGYUN 3A              
1 32958U 08026A   22175.16772137  .00000064  00000+0  51077-4 0  9997
2 32958  98.5027 137.5250 0009002  11.8370 348.3017 14.18723874729283
PRISM (HITOMI)          
1 33493U 09002B   22175.21636524  .00003313  00000+0  27212-3 0  9995
2 33493  98.2255 162.1732 0015841 146.4404 213.7825 14.99859597730003
STARS (KUKAI)           
1 33498U 09002G   22174.67303903  .00001110  00000+0  15395-3 0  9993
2 33498  98.1688  66.7804 0009486 227.4306 132.6106 14.80008184722779
KKS-1 (KISEKI)          
1 33499U 09002H   22174.47917139  .00000597  00000+0  94447-4 0  9998
2 33499  98.2175  56.6249 0007834 301.4726  58.5716 14.76025736721563
NOAA 19                 
1 33591U 09005A   22175.14895866  .00000132  00000+0  96429-4 0  9998
2 33591  99.1469 209.4265 0014223 165.2552 194.9036 14.12579963689391
SWISSCUBE               
1 35932U 09051B   22174.48875581  .00000527  00000+0  12841-3 0  9991
2 35932  98.5683  30.5950 0008330  36.7027 323.4740 14.56872946676974
BEESAT-1                
1 35933U 09051C   22174.37507469  .00000480  00000+0  11787-3 0  9993
2 35933  98.5625  32.1040 0006729  49.9347 310.2439 14.56888104677030
ITUPSAT1                
1 35935U 09051E   22174.53357023  .00000407  00000+0  10350-3 0  9996
2 35935  98.5726  32.3211 0009048  50.2183 309.9809 14.55996463676791
XIWANG-1 (HOPE-1)       
1 36122U 09072B   22174.50353057 -.00000022  00000+0  54753-4 0  9998
2 36122 100.1827 145.6415 0007180 332.7998  27.2738 13.16369669601600
CARTOSAT-2B             
1 36795U 10035A   22175.08883516  .00000593  00000+0  88040-4 0  9995
2 36795  97.9595 235.3949 0012789 218.8336 141.1953 14.78642522645043
TISAT 1                 
1 36799U 10035E   22174.55166929  .00001920  00000+0  19075-3 0  9998
2 36799  98.1828  25.2367 0013297  77.3762 282.8942 14.92923213648875
FENGYUN 3B              
1 37214U 10059A   22175.14342988 -.00000029  00000+0  88865-5 0  9999
2 37214  99.0907 181.2358 0021862 339.3310  20.6975 14.14257417601903
JUGNU                   
1 37839U 11058B   22175.20105844  .00000367  00000+0  53195-4 0  9998
2 37839  19.9602 134.5359 0018799 230.6991 250.5860 14.12789005553201
SRMSAT                  
1 37841U 11058D   22174.50313889  .00000339  00000+0  41307-4 0  9994
2 37841  19.9703 218.3528 0012036  50.9745  91.7570 14.10757371552091
M-CUBED & EXP-1 PRIME   
1 37855U 11061F   22174.59047782  .00007979  00000+0  35053-3 0  9995
2 37855 101.7094 296.9123 0152799  44.0601 317.2673 15.12509371582639
HORYU-2                 
1 38340U 12025D   22175.18838318  .00001075  00000+0  16129-3 0  9999
2 38340  98.1947 253.6835 0010991 199.5206 160.5584 14.76658499543642
METOP-B                 
1 38771U 12049A   22175.16513698  .00000060  00000+0  47233-4 0  9996
2 38771  98.6951 234.8187 0001759  74.4639 308.0568 14.21491185506685
SARAL                   
1 39086U 13009A   22174.60838236  .00000055  00000+0  36795-4 0  9994
2 39086  98.5475   0.1562 0000395 159.4719 200.6480 14.32047986487365
AAUSAT 3                
1 39087U 13009B   22175.03250349  .00000414  00000+0  15649-3 0  9999
2 39087  98.4002  14.4275 0011207 246.0533 113.9466 14.36185807488529
STRAND-1                
1 39090U 13009E   22174.50349600  .00000144  00000+0  65222-4 0  9996
2 39090  98.4044  12.4823 0007835 251.3336 108.6999 14.35295756488265
BRITE-AUSTRIA           
1 39091U 13009F   22174.48831600  .00000116  00000+0  55397-4 0  9991
2 39091  98.4058  11.6368 0009263 259.2702 100.7441 14.35277225488308
UNIBRITE                
1 39092U 13009G   22174.51051860  .00000116  00000+0  55700-4 0  9996
2 39092  98.4093  11.4218 0008194 253.6285 106.4000 14.35147776488262
SOMP                    
1 39134U 13015E   22174.05907722  .00012101  00000+0  43141-3 0  9998
2 39134  64.8629  43.4936 0034922 278.8304  80.8874 15.28661389507712
BEESAT-3                
1 39135U 13015F   22175.15093624  .00007963  00000+0  32900-3 0  9999
2 39135  64.8668  76.1157 0037960 285.3821  74.3115 15.24002169507566
BEESAT-2                
1 39136U 13015G   22174.48103917  .00008429  00000+0  36371-3 0  9996
2 39136  64.8752  86.4845 0016509 296.9623  62.9819 15.23005394506838
NEE-01 PEGASO           
1 39151U 13018B   22175.06540946  .00000956  00000+0  13023-3 0  9994
2 39151  97.9919 280.7049 0015778 230.5669 129.4147 14.80953071494669
CUBEBUG-1 (CAPITAN BETO)
1 39153U 13018D   22175.12975383  .00001199  00000+0  15902-3 0  9998
2 39153  98.0135 285.2161 0015739 224.6133 135.3814 14.81650453494829
